CCSDS_OMM_VERS = 2.0
CREATION_DATE  = 
ORIGINATOR     = 

OBJECT_NAME    = DELTA 2 R/B(1)
OBJECT_ID      = 1990-008B
CENTER_NAME    = EARTH
REF_FRAME      = TEME
TIME_SYSTEM    = UTC
MEAN_ELEMENT_THEORY = SGP/SGP4

EPOCH          = 2026-01-07T13:47:44.801376
MEAN_MOTION    = 15.47883849
ECCENTRICITY   = .01038954
INCLINATION    = 35.6035
RA_OF_ASC_NODE = 213.3985
ARG_OF_PERICENTER = 53.3971
MEAN_ANOMALY   = 307.6267

EPHEMERIS_TYPE = 0
CLASSIFICATION_TYPE = U
NORAD_CAT_ID   = 20453
ELEMENT_SET_NO = 999
REV_AT_EPOCH   = 91663
BSTAR          = .61464361E-3
MEAN_MOTION_DOT = .41153E-3
MEAN_MOTION_DDOT = 0

CCSDS_OMM_VERS = 2.0
CREATION_DATE  = 
ORIGINATOR     = 

OBJECT_NAME    = COSMOS 2058
OBJECT_ID      = 1990-010A
CENTER_NAME    = EARTH
REF_FRAME      = TEME
TIME_SYSTEM    = UTC
MEAN_ELEMENT_THEORY = SGP/SGP4

EPOCH          = 2026-01-08T15:38:03.575328
MEAN_MOTION    = 15.10772477
ECCENTRICITY   = .00100949
INCLINATION    = 82.4703
RA_OF_ASC_NODE = 106.5604
ARG_OF_PERICENTER = 176.9415
MEAN_ANOMALY   = 183.1878

EPHEMERIS_TYPE = 0
CLASSIFICATION_TYPE = U
NORAD_CAT_ID   = 20465
ELEMENT_SET_NO = 999
REV_AT_EPOCH   = 93317
BSTAR          = .28278038E-3
MEAN_MOTION_DOT = .4725E-4
MEAN_MOTION_DDOT = 0

CCSDS_OMM_VERS = 2.0
CREATION_DATE  = 
ORIGINATOR     = 

OBJECT_NAME    = SL-14 R/B
OBJECT_ID      = 1990-010B
CENTER_NAME    = EARTH
REF_FRAME      = TEME
TIME_SYSTEM    = UTC
MEAN_ELEMENT_THEORY = SGP/SGP4

EPOCH          = 2026-01-08T14:10:42.890016
MEAN_MOTION    = 14.83503870
ECCENTRICITY   = .0020905
INCLINATION    = 82.5039
RA_OF_ASC_NODE = 323.8295
ARG_OF_PERICENTER = 134.6101
MEAN_ANOMALY   = 225.6824

EPHEMERIS_TYPE = 0
CLASSIFICATION_TYPE = U
NORAD_CAT_ID   = 20466
ELEMENT_SET_NO = 999
REV_AT_EPOCH   = 91957
BSTAR          = .73597589E-4
MEAN_MOTION_DOT = .631E-5
MEAN_MOTION_DDOT = 0

CCSDS_OMM_VERS = 2.0
CREATION_DATE  = 
ORIGINATOR     = 

OBJECT_NAME    = SL-14 R/B
OBJECT_ID      = 1990-018B
CENTER_NAME    = EARTH
REF_FRAME      = TEME
TIME_SYSTEM    = UTC
MEAN_ELEMENT_THEORY = SGP/SGP4

EPOCH          = 2026-01-09T03:47:57.249600
MEAN_MOTION    = 14.82081064
ECCENTRICITY   = .001499
INCLINATION    = 82.5219
RA_OF_ASC_NODE = 278.7404
ARG_OF_PERICENTER = 290.2239
MEAN_ANOMALY   = 69.7363

EPHEMERIS_TYPE = 0
CLASSIFICATION_TYPE = U
NORAD_CAT_ID   = 20511
ELEMENT_SET_NO = 999
REV_AT_EPOCH   = 91376
BSTAR          = .55006E-4
MEAN_MOTION_DOT = .461E-5
MEAN_MOTION_DDOT = 0

CCSDS_OMM_VERS = 2.0
CREATION_DATE  = 
ORIGINATOR     = 

OBJECT_NAME    = HST
OBJECT_ID      = 1990-037B
CENTER_NAME    = EARTH
REF_FRAME      = TEME
TIME_SYSTEM    = UTC
MEAN_ELEMENT_THEORY = SGP/SGP4

EPOCH          = 2026-01-08T21:25:46.024320
MEAN_MOTION    = 15.28461267
ECCENTRICITY   = .0002262
INCLINATION    = 28.4664
RA_OF_ASC_NODE = 87.6091
ARG_OF_PERICENTER = 157.8382
MEAN_ANOMALY   = 202.2311

EPHEMERIS_TYPE = 0
CLASSIFICATION_TYPE = U
NORAD_CAT_ID   = 20580
ELEMENT_SET_NO = 999
REV_AT_EPOCH   = 76415
BSTAR          = .22974E-3
MEAN_MOTION_DOT = .6776E-4
MEAN_MOTION_DDOT = 0

CCSDS_OMM_VERS = 2.0
CREATION_DATE  = 
ORIGINATOR     = 

OBJECT_NAME    = SL-16 R/B
OBJECT_ID      = 1990-046B
CENTER_NAME    = EARTH
REF_FRAME      = TEME
TIME_SYSTEM    = UTC
MEAN_ELEMENT_THEORY = SGP/SGP4

EPOCH          = 2026-01-09T04:11:23.818272
MEAN_MOTION    = 14.15004798
ECCENTRICITY   = .0013062
INCLINATION    = 70.9996
RA_OF_ASC_NODE = 62.9059
ARG_OF_PERICENTER = 26.7571
MEAN_ANOMALY   = 333.4222

EPHEMERIS_TYPE = 0
CLASSIFICATION_TYPE = U
NORAD_CAT_ID   = 20625
ELEMENT_SET_NO = 999
REV_AT_EPOCH   = 83997
BSTAR          = .18234E-3
MEAN_MOTION_DOT = .306E-5
MEAN_MOTION_DDOT = 0

CCSDS_OMM_VERS = 2.0
CREATION_DATE  = 
ORIGINATOR     = 

OBJECT_NAME    = COSMOS 2084
OBJECT_ID      = 1990-055A
CENTER_NAME    = EARTH
REF_FRAME      = TEME
TIME_SYSTEM    = UTC
MEAN_ELEMENT_THEORY = SGP/SGP4

EPOCH          = 2026-01-09T04:57:12.020832
MEAN_MOTION    = 15.05222491
ECCENTRICITY   = .0027106
INCLINATION    = 62.7893
RA_OF_ASC_NODE = 178.3911
ARG_OF_PERICENTER = 178.8248
MEAN_ANOMALY   = 181.2921

EPHEMERIS_TYPE = 0
CLASSIFICATION_TYPE = U
NORAD_CAT_ID   = 20663
ELEMENT_SET_NO = 999
REV_AT_EPOCH   = 92736
BSTAR          = .29477E-3
MEAN_MOTION_DOT = .4059E-4
MEAN_MOTION_DDOT = 0

CCSDS_OMM_VERS = 2.0
CREATION_DATE  = 
ORIGINATOR     = 

OBJECT_NAME    = SL-6 R/B(2)
OBJECT_ID      = 1990-055D
CENTER_NAME    = EARTH
REF_FRAME      = TEME
TIME_SYSTEM    = UTC
MEAN_ELEMENT_THEORY = SGP/SGP4

EPOCH          = 2026-01-08T13:50:46.027104
MEAN_MOTION    = 15.03239648
ECCENTRICITY   = .0016089
INCLINATION    = 62.7835
RA_OF_ASC_NODE = 98.2176
ARG_OF_PERICENTER = 325.7670
MEAN_ANOMALY   = 34.2390

EPHEMERIS_TYPE = 0
CLASSIFICATION_TYPE = U
NORAD_CAT_ID   = 20666
ELEMENT_SET_NO = 999
REV_AT_EPOCH   = 92915
BSTAR          = .21782E-3
MEAN_MOTION_DOT = .2773E-4
MEAN_MOTION_DDOT = 0

CCSDS_OMM_VERS = 2.0
CREATION_DATE  = 
ORIGINATOR     = 

OBJECT_NAME    = SL-8 R/B
OBJECT_ID      = 1990-078B
CENTER_NAME    = EARTH
REF_FRAME      = TEME
TIME_SYSTEM    = UTC
MEAN_ELEMENT_THEORY = SGP/SGP4

EPOCH          = 2026-01-08T07:43:27.014016
MEAN_MOTION    = 14.86884762
ECCENTRICITY   = .03689977
INCLINATION    = 82.9065
RA_OF_ASC_NODE = 305.5017
ARG_OF_PERICENTER = 216.3690
MEAN_ANOMALY   = 141.1944

EPHEMERIS_TYPE = 0
CLASSIFICATION_TYPE = U
NORAD_CAT_ID   = 20775
ELEMENT_SET_NO = 999
REV_AT_EPOCH   = 80032
BSTAR          = .44932736E-3
MEAN_MOTION_DOT = .14733E-3
MEAN_MOTION_DDOT = 0

CCSDS_OMM_VERS = 2.0
CREATION_DATE  = 
ORIGINATOR     = 

OBJECT_NAME    = SL-8 R/B
OBJECT_ID      = 1991-006B
CENTER_NAME    = EARTH
REF_FRAME      = TEME
TIME_SYSTEM    = UTC
MEAN_ELEMENT_THEORY = SGP/SGP4

EPOCH          = 2026-01-09T01:44:19.990176
MEAN_MOTION    = 13.77492723
ECCENTRICITY   = .002199
INCLINATION    = 82.9408
RA_OF_ASC_NODE = 214.3810
ARG_OF_PERICENTER = 199.5132
MEAN_ANOMALY   = 272.3048

EPHEMERIS_TYPE = 0
CLASSIFICATION_TYPE = U
NORAD_CAT_ID   = 21088
ELEMENT_SET_NO = 999
REV_AT_EPOCH   = 75586
BSTAR          = -.10963E-4
MEAN_MOTION_DOT = .4E-7
MEAN_MOTION_DDOT = 0

CCSDS_OMM_VERS = 2.0
CREATION_DATE  = 
ORIGINATOR     = 

OBJECT_NAME    = OKEAN-3
OBJECT_ID      = 1991-039A
CENTER_NAME    = EARTH
REF_FRAME      = TEME
TIME_SYSTEM    = UTC
MEAN_ELEMENT_THEORY = SGP/SGP4

EPOCH          = 2026-01-08T13:22:08.717376
MEAN_MOTION    = 15.04320133
ECCENTRICITY   = .00147272
INCLINATION    = 82.5163
RA_OF_ASC_NODE = 35.0834
ARG_OF_PERICENTER = 169.5246
MEAN_ANOMALY   = 190.6290

EPHEMERIS_TYPE = 0
CLASSIFICATION_TYPE = U
NORAD_CAT_ID   = 21397
ELEMENT_SET_NO = 999
REV_AT_EPOCH   = 85599
BSTAR          = .25446654E-3
MEAN_MOTION_DOT = .358E-4
MEAN_MOTION_DDOT = 0

CCSDS_OMM_VERS = 2.0
CREATION_DATE  = 
ORIGINATOR     = 

OBJECT_NAME    = COSMOS 2151
OBJECT_ID      = 1991-042A
CENTER_NAME    = EARTH
REF_FRAME      = TEME
TIME_SYSTEM    = UTC
MEAN_ELEMENT_THEORY = SGP/SGP4

EPOCH          = 2026-01-08T15:28:19.113024
MEAN_MOTION    = 14.99826310
ECCENTRICITY   = .00112304
INCLINATION    = 82.4979
RA_OF_ASC_NODE = 141.5747
ARG_OF_PERICENTER = 261.6226
MEAN_ANOMALY   = 98.3725

EPHEMERIS_TYPE = 0
CLASSIFICATION_TYPE = U
NORAD_CAT_ID   = 21422
ELEMENT_SET_NO = 999
REV_AT_EPOCH   = 85419
BSTAR          = .2596529E-3
MEAN_MOTION_DOT = .3243E-4
MEAN_MOTION_DDOT = 0

